[{"OBJECT_NAME":"STARLINK-36456","OBJECT_ID":"2026-003Z","EPOCH":"2026-03-09T11:49:39.908928","MEAN_MOTION":15.27597956,"ECCENTRICITY":9.028e-5,"INCLINATION":42.9995,"RA_OF_ASC_NODE":228.1823,"ARG_OF_PERICENTER":209.28,"MEAN_ANOMALY":150.8002,"EPHEMERIS_TYPE":0,"CLASSIFICATION_TYPE":"U","NORAD_CAT_ID":67357,"ELEMENT_SET_NO":999,"REV_AT_EPOCH":879,"BSTAR":0.00096112705,"MEAN_MOTION_DOT":0.00026295,"MEAN_MOTION_DDOT":0},{"OBJECT_NAME":"CSSWE","OBJECT_ID":"2012-048D","EPOCH":"2026-03-09T08:13:05.901888","MEAN_MOTION":15.39093253,"ECCENTRICITY":0.00676686,"INCLINATION":64.6623,"RA_OF_ASC_NODE":70.3925,"ARG_OF_PERICENTER":202.9126,"MEAN_ANOMALY":156.8988,"EPHEMERIS_TYPE":0,"CLASSIFICATION_TYPE":"U","NORAD_CAT_ID":38761,"ELEMENT_SET_NO":999,"REV_AT_EPOCH":10100,"BSTAR":0.00070329542,"MEAN_MOTION_DOT":0.0002953,"MEAN_MOTION_DDOT":0}]
